OBJECT_NAME,OBJECT_ID,EPOCH,MEAN_MOTION,ECCENTRICITY,INCLINATION,RA_OF_ASC_NODE,ARG_OF_PERICENTER,MEAN_ANOMALY,EPHEMERIS_TYPE,CLASSIFICATION_TYPE,NORAD_CAT_ID,ELEMENT_SET_NO,REV_AT_EPOCH,BSTAR,MEAN_MOTION_DOT,MEAN_MOTION_DDOT
POLYITAN-1,2014-033AJ,2026-07-09T00:57:44.269344,15.34063134,.00083174,98.0943,218.3797,82.3047,277.9138,0,U,40042,999,65694,.41372107E-3,.13569E-3,0
TIGRISAT,2014-033AK,2026-07-09T03:30:58.796640,14.85238395,.00491754,97.7856,339.6587,4.2911,355.8715,0,U,40043,999,64888,.14432965E-3,.1209E-4,0
AEROCUBE 6A,2014-033AM,2026-07-08T22:19:13.781568,14.98302781,.00370111,97.7236,356.6513,302.4938,57.2709,0,U,40045,999,64987,.26287539E-3,.311E-4,0
AEROCUBE 6B,2014-033AN,2026-07-07T17:02:44.600352,14.99755397,.00378479,97.7215,355.2788,296.6954,63.0396,0,U,40046,999,64983,.24186486E-3,.2971E-4,0
CANX-4,2014-034C,2026-07-09T02:31:57.677952,14.81304286,.00116359,98.3094,66.2205,304.5619,55.4494,0,U,40055,999,64777,.85748069E-4,.612E-5,0
CANX-5,2014-034D,2026-07-09T02:29:20.201856,14.81321616,.0011636,98.3096,66.2635,304.7707,55.2409,0,U,40056,999,63858,.85658027E-4,.612E-5,0
UKUBE-1,2014-037F,2026-07-08T23:34:37.945632,15.13887025,.00032733,98.4245,195.5495,99.1613,260.9986,0,U,40074,999,65185,.26984496E-3,.4805E-4,0
BRITE-PL2 (HEWELIUSZ),2014-049B,2026-07-09T06:21:32.978592,14.94675108,.00147773,97.9114,302.4379,41.3663,318.8673,0,U,40119,999,64474,.15885348E-3,.1666E-4,0
AEROCUBE 5C,2015-058B,2026-07-09T00:42:20.006208,14.91551276,.01319227,64.7653,194.6344,54.7863,306.5516,0,U,40965,999,36891,.17146698E-3,.1855E-4,0
AEROCUBE 7,2015-058C,2026-07-08T16:41:42.429408,14.95872823,.01215979,64.7606,177.4388,53.2521,307.9684,0,U,40966,999,36917,.260715E-3,.3209E-4,0
FOX-1A (AO-85),2015-058D,2026-07-09T00:24:29.327904,14.91065127,.01318917,64.7733,211.1378,48.1465,313.0815,0,U,40967,999,11682,.15541655E-3,.1641E-4,0
SINOD-D 1,2015-058E,2026-07-09T00:07:33.964608,14.96049923,.01205641,64.7734,190.5790,44.5324,316.5402,0,U,40968,999,11992,.23988919E-3,.2945E-4,0
SNAP-3 ALICE,2015-058G,2026-07-09T05:59:01.273920,15.66012908,.00236786,64.7497,27.3461,352.7154,7.3647,0,U,40970,999,12033,.12309641E-2,.130302E-2,0
LMRST-SAT,2015-058H,2026-07-09T01:04:48.100224,14.90681027,.01334407,64.7739,207.4304,50.1496,311.1265,0,U,40971,999,11681,.15227857E-3,.1593E-4,0
SNAP-3 EDDIE,2015-058J,2026-07-08T21:40:09.279552,15.67200263,.00245332,64.7405,19.1153,355.9394,4.1552,0,U,40972,999,12242,.10375246E-2,.115112E-2,0
PROPCUBE 3,2015-058K,2026-07-08T00:32:59.843904,14.94377515,.01252338,64.7669,187.4306,51.7463,309.4841,0,U,40973,999,11791,.19686281E-3,.2298E-4,0
BISONSAT,2015-058L,2026-07-09T04:35:15.447264,15.16819361,.00814371,64.7579,102.4695,38.4367,322.2520,0,U,40974,999,11895,.5471513E-3,.11575E-3,0
SNAP-3 JIMI,2015-058M,2026-07-08T22:56:05.678592,15.02549103,.01073014,64.7634,150.8853,46.7367,314.2642,0,U,40975,999,11749,.32124937E-3,.4667E-4,0
PROPCUBE 1 (FLORA),2015-058N,2026-07-09T02:05:29.561280,14.89310116,.01320461,64.7731,227.3576,52.4182,308.8834,0,U,40976,999,11952,.12909037E-3,.1266E-4,0
SINOD-D 3,2015-058P,2026-07-08T07:48:55.994112,14.94138888,.01205514,64.7708,209.8037,49.7948,311.3641,0,U,40977,999,11791,.18159159E-3,.2066E-4,0
RAVAN,2016-067B,2026-07-09T04:03:41.606784,15.56989038,.0001652,97.9854,82.3149,259.9221,100.1846,0,U,41849,999,53111,.65814465E-3,.47574E-3,0
CELTEE 1,2016-067C,2026-07-08T14:31:24.708576,15.19898372,.00020974,98.0651,57.6329,118.4249,241.7196,0,U,41850,999,52913,.15879697E-3,.3332E-4,0
OPTICUBE 04,2016-067D,2026-07-09T00:25:24.201408,15.09754405,.00165702,98.0684,43.4393,47.6553,312.6075,0,U,41851,999,52846,.10704392E-3,.1661E-4,0
AEROCUBE 8D,2016-067E,2026-07-08T14:50:07.137888,15.24707647,.00048788,98.0658,61.4206,72.9126,287.2644,0,U,41852,999,52933,.20032197E-3,.4874E-4,0
AEROCUBE 8C,2016-067F,2026-07-09T02:22:25.155264,15.24966793,.00049357,98.0532,59.1380,4.0860,356.0415,0,U,41853,999,52940,.20306516E-3,.4981E-4,0
CORVUS BC2,2017-042X,2026-07-08T21:59:43.145376,15.06435714,.00139194,97.4091,350.4254,43.2717,316.9601,0,U,42846,999,49033,.15416919E-3,.2218E-4,0
CORVUS BC1,2017-042Y,2026-07-08T21:48:29.831040,15.06600810,.00122543,97.4123,351.2462,22.1714,338.0041,0,U,42847,999,49036,.13199073E-3,.1898E-4,0
MAKERSAT 0,2017-073D,2026-07-08T17:28:33.025728,15.32839065,.01050669,97.4597,72.4218,195.3224,164.4830,0,U,43016,999,46976,.36375063E-3,.13683E-3,0
SIRION PATHFINDER-2,2018-099B,2026-07-08T15:39:47.495520,15.14744359,.00078114,97.4246,238.2007,215.4457,144.6257,0,U,43759,999,41587,.16123389E-3,.2925E-4,0
CORVUS BC4,2018-099K,2026-07-08T16:31:20.490240,15.12668563,.00065196,97.4057,232.0397,289.4276,70.6250,0,U,43767,999,41565,.14298873E-3,.2438E-4,0
